[{"OBJECT_NAME":"STARLINK-31694","OBJECT_ID":"2024-120F","EPOCH":"2026-03-09T21:24:42.788160","MEAN_MOTION":15.30197502,"ECCENTRICITY":0.00010729,"INCLINATION":53.1611,"RA_OF_ASC_NODE":319.2365,"ARG_OF_PERICENTER":84.8513,"MEAN_ANOMALY":275.261,"EPHEMERIS_TYPE":0,"CLASSIFICATION_TYPE":"U","NORAD_CAT_ID":60140,"ELEMENT_SET_NO":999,"REV_AT_EPOCH":9648,"BSTAR":0.00046645359,"MEAN_MOTION_DOT":0.0001348,"MEAN_MOTION_DDOT":0},{"OBJECT_NAME":"CZ-6A DEB","OBJECT_ID":"2022-151DV","EPOCH":"2026-03-09T19:16:59.107296","MEAN_MOTION":15.22406517,"ECCENTRICITY":0.00445255,"INCLINATION":98.4509,"RA_OF_ASC_NODE":160.1888,"ARG_OF_PERICENTER":355.6495,"MEAN_ANOMALY":4.4345,"EPHEMERIS_TYPE":0,"CLASSIFICATION_TYPE":"U","NORAD_CAT_ID":54397,"ELEMENT_SET_NO":999,"REV_AT_EPOCH":17880,"BSTAR":0.0035436228,"MEAN_MOTION_DOT":0.00084931,"MEAN_MOTION_DDOT":0}]
